GLOBALSTAR M094         
1 39074U 13005C   24224.01291056 -.00000100  00000+0  20513-4 0  9996
2 39074  51.9966  46.5054 0000651  63.7233 296.3700 12.62266694533227
GLOBALSTAR M096         
1 39075U 13005D   24224.10535391 -.00000095  00000+0  46626-4 0  9996
2 39075  52.0070  94.4980 0000529  36.2909 323.7994 12.62268572532489
GLOBALSTAR M095         
1 39077U 13005F   24224.02603425 -.00000088  00000+0  85628-4 0  9990
2 39077  51.9784 177.0200 0000401 271.5321  88.5499 12.62262908530969
GLOBALSTAR M087         
1 52888U 22064A   24224.10467750 -.00000074  00000+0  10379-3 0  9993
2 52888  51.9775  16.8850 0009935 140.3681 219.7948 13.37580834104876
